{"type": "FeatureCollection", "features": [ {"type": "Feature", "properties": {"norad_id": 28649, "name": "IRS-P5 (CARTOSAT-1)", "group": "resource", "lat": -13.643839304003206, "lon": -161.526403740341, "alt_km": 601.716071749579, "timestamp": "2025-12-20T05:41:49.674698+00:00", "meta": {"OBJECT_NAME": "IRS-P5 (CARTOSAT-1)", "OBJECT_ID": "2005-017A", "EPOCH": "2025-12-19T12:43:05.760192", "MEAN_MOTION": 14.90426279, "ECCENTRICITY": 8.32e-05, "INCLINATION": 97.5486, "RA_OF_ASC_NODE": 19.6421, "ARG_OF_PERICENTER": 50.2507, "MEAN_ANOMALY": 309.8785, "EPHEMERIS_TYPE": 0, "CLASSIFICATION_TYPE": "U", "NORAD_CAT_ID": 28649, "ELEMENT_SET_NO": 999, "REV_AT_EPOCH": 11705, "BSTAR": 0.00011213, "MEAN_MOTION_DOT": 1.04e-05, "MEAN_MOTION_DDOT": 0}, "tle": {"line1": "1 28649U 05017A   25353.52992778  .00001040  00000+0  11213-3 0  9994", "line2": "2 28649  97.5486  19.6421 0000832  50.2507 309.8785 14.90426279117053"}}, "geometry": {"type": "Point", "coordinates": [-161.526403740341, -13.643839304003206]}}, {"type": "Feature", "properties": {"norad_id": 28893, "name": "SINAH 1", "group": "resource", "lat": -14.65620405581964, "lon": -59.36276172798548, "alt_km": 683.0835077167576, "timestamp": "2025-12-20T05:41:49.674709+00:00", "meta": {"OBJECT_NAME": "SINAH 1", "OBJECT_ID": "2005-043D", "EPOCH": "2025-12-19T22:15:02.420640", "MEAN_MOTION": 14.6396954, "ECCENTRICITY": 0.00156242, "INCLINATION": 98.2608, "RA_OF_ASC_NODE": 122.5037, "ARG_OF_PERICENTER": 115.9393, "MEAN_ANOMALY": 244.3422, "EPHEMERIS_TYPE": 0, "CLASSIFICATION_TYPE": "U", "NORAD_CAT_ID": 28893, "ELEMENT_SET_NO": 999, "REV_AT_EPOCH": 7429, "BSTAR": 6.4732723e-05, "MEAN_MOTION_DOT": 2.9e-06, "MEAN_MOTION_DDOT": 0}, "tle": {"line1": "1 28893U 05043D   25353.92711135  .00000290  00000+0  64733-4 0  9996", "line2": "2 28893  98.2608 122.5037 0015624 115.9393 244.3422 14.63969540 74294"}}, "geometry": {"type": "Point", "coordinates": [-59.36276172798548, -14.65620405581964]}}, {"type": "Feature", "properties": {"norad_id": 29079, "name": "EROS B", "group": "resource", "lat": 13.261612861044936, "lon": -67.07613902688743, "alt_km": 360.4835606064098, "timestamp": "2025-12-20T05:41:49.674720+00:00", "meta": {"OBJECT_NAME": "EROS B", "OBJECT_ID": "2006-014A", "EPOCH": "2025-12-19T21:20:39.223104", "MEAN_MOTION": 15.70467526, "ECCENTRICITY": 0.00035129, "INCLINATION": 97.3468, "RA_OF_ASC_NODE": 110.8155, "ARG_OF_PERICENTER": 311.1816, "MEAN_ANOMALY": 48.9144, "EPHEMERIS_TYPE": 0, "CLASSIFICATION_TYPE": "U", "NORAD_CAT_ID": 29079, "ELEMENT_SET_NO": 999, "REV_AT_EPOCH": 9192, "BSTAR": 0.0010459882, "MEAN_MOTION_DOT": 0.00129628, "MEAN_MOTION_DDOT": 0}, "tle": {"line1": "1 29079U 06014A   25353.88934286  .00129628  00000+0  10460-2 0  9994", "line2": "2 29079  97.3468 110.8155 0003512 311.1816  48.9144 15.70467526 91923"}}, "geometry": {"type": "Point", "coordinates": [-67.07613902688743, 13.261612861044936]}}, {"type": "Feature", "properties": {"norad_id": 29228, "name": "RESURS-DK 1", "group": "resource", "lat": -8.301482537314495, "lon": 79.40527409371903, "alt_km": 533.6586875649309, "timestamp": "2025-12-20T05:41:49.674731+00:00", "meta": {"OBJECT_NAME": "RESURS-DK 1", "OBJECT_ID": "2006-021A", "EPOCH": "2025-12-19T17:02:08.743488", "MEAN_MOTION": 15.12197286, "ECCENTRICITY": 0.0006864, "INCLINATION": 69.9339, "RA_OF_ASC_NODE": 83.8253, "ARG_OF_PERICENTER": 253.3624, "MEAN_ANOMALY": 106.6789, "EPHEMERIS_TYPE": 0, "CLASSIFICATION_TYPE": "U", "NORAD_CAT_ID": 29228, "ELEMENT_SET_NO": 999, "REV_AT_EPOCH": 7543, "BSTAR": 0.00011372674, "MEAN_MOTION_DOT": 1.861e-05, "MEAN_MOTION_DDOT": 0}, "tle": {"line1": "1 29228U 06021A   25353.70982342  .00001861  00000+0  11373-3 0  9998", "line2": "2 29228  69.9339  83.8253 0006864 253.3624 106.6789 15.12197286 75430"}}, "geometry": {"type": "Point", "coordinates": [79.40527409371903, -8.301482537314495]}}, {"type": "Feature", "properties": {"norad_id": 29268, "name": "ARIRANG-2 (KOMPSAT-2)", "group": "resource", "lat": 64.79577593218885, "lon": 19.334143405842145, "alt_km": 681.5246249906677, "timestamp": "2025-12-20T05:41:49.674741+00:00", "meta": {"OBJECT_NAME": "ARIRANG-2 (KOMPSAT-2)", "OBJECT_ID": "2006-031A", "EPOCH": "2025-12-19T23:20:23.060832", "MEAN_MOTION": 14.64500481, "ECCENTRICITY": 0.00132033, "INCLINATION": 97.8254, "RA_OF_ASC_NODE": 182.0925, "ARG_OF_PERICENTER": 284.3461, "MEAN_ANOMALY": 233.9494, "EPHEMERIS_TYPE": 0, "CLASSIFICATION_TYPE": "U", "NORAD_CAT_ID": 29268, "ELEMENT_SET_NO": 999, "REV_AT_EPOCH": 3524, "BSTAR": 9.2936198e-05, "MEAN_MOTION_DOT": 4.48e-06, "MEAN_MOTION_DDOT": 0}, "tle": {"line1": "1 29268U 06031A   25353.97248913  .00000448  00000+0  92936-4 0  9996", "line2": "2 29268  97.8254 182.0925 0013203 284.3461 233.9494 14.64500481 35249"}}, "geometry": {"type": "Point", "coordinates": [19.334143405842145, 64.79577593218885]}}, {"type": "Feature", "properties": {"norad_id": 29709, "name": "LAPAN-TUBSAT", "group": "resource", "lat": -76.8173892243674, "lon": 126.96281547156258, "alt_km": 627.0621771189799, "timestamp": "2025-12-20T05:41:49.674752+00:00", "meta": {"OBJECT_NAME": "LAPAN-TUBSAT", "OBJECT_ID": "2007-001A", "EPOCH": "2025-12-19T23:40:59.660832", "MEAN_MOTION": 14.85679509, "ECCENTRICITY": 0.00133871, "INCLINATION": 98.1251, "RA_OF_ASC_NODE": 344.2922, "ARG_OF_PERICENTER": 52.6408, "MEAN_ANOMALY": 307.6024, "EPHEMERIS_TYPE": 0, "CLASSIFICATION_TYPE": "U", "NORAD_CAT_ID": 29709, "ELEMENT_SET_NO": 999, "REV_AT_EPOCH": 2454, "BSTAR": 4.2314702e-05, "MEAN_MOTION_DOT": 3.1e-06, "MEAN_MOTION_DDOT": 0}, "tle": {"line1": "1 29709U 07001A   25353.98680163  .00000310  00000+0  42315-4 0  9996", "line2": "2 29709  98.1251 344.2922 0013387  52.6408 307.6024 14.85679509 24549"}}, "geometry": {"type": "Point", "coordinates": [126.96281547156258, -76.8173892243674]}}, {"type": "Feature", "properties": {"norad_id": 31113, "name": "HAIYANG-1B", "group": "resource", "lat": 67.92763622084017, "lon": 179.39256264094098, "alt_km": 782.5236276361838, "timestamp": "2025-12-20T05:41:49.674763+00:00", "meta": {"OBJECT_NAME": "HAIYANG-1B", "OBJECT_ID": "2007-010A", "EPOCH": "2025-12-19T12:24:07.786656", "MEAN_MOTION": 14.30967225, "ECCENTRICITY": 0.0013939, "INCLINATION": 98.332, "RA_OF_ASC_NODE": 337.5151, "ARG_OF_PERICENTER": 18.7934, "MEAN_ANOMALY": 341.3762, "EPHEMERIS_TYPE": 0, "CLASSIFICATION_TYPE": "U", "NORAD_CAT_ID": 31113, "ELEMENT_SET_NO": 999, "REV_AT_EPOCH": 97493, "BSTAR": 4.3711e-05, "MEAN_MOTION_DOT": 7.3e-07, "MEAN_MOTION_DDOT": 0}, "tle": {"line1": "1 31113U 07010A   25353.51675679  .00000073  00000+0  43711-4 0  9990", "line2": "2 31113  98.3320 337.5151 0013939  18.7934 341.3762 14.30967225974935"}}, "geometry": {"type": "Point", "coordinates": [179.39256264094098, 67.92763622084017]}}, {"type": "Feature", "properties": {"norad_id": 31598, "name": "COSMO-SKYMED 1", "group": "resource", "lat": 50.99085048801362, "lon": 9.53499033481718, "alt_km": 574.3587361808331, "timestamp": "2025-12-20T05:41:49.674774+00:00", "meta": {"OBJECT_NAME": "COSMO-SKYMED 1", "OBJECT_ID": "2007-023A", "EPOCH": "2025-12-19T22:42:14.293728", "MEAN_MOTION": 14.95818364, "ECCENTRICITY": 0.00015817, "INCLINATION": 97.8837, "RA_OF_ASC_NODE": 179.3924, "ARG_OF_PERICENTER": 85.2719, "MEAN_ANOMALY": 274.8682, "EPHEMERIS_TYPE": 0, "CLASSIFICATION_TYPE": "U", "NORAD_CAT_ID": 31598, "ELEMENT_SET_NO": 999, "REV_AT_EPOCH": 298, "BSTAR": 0.00026363351, "MEAN_MOTION_DOT": 2.884e-05, "MEAN_MOTION_DDOT": 0}, "tle": {"line1": "1 31598U 07023A   25353.94599877  .00002884  00000+0  26363-3 0  9998", "line2": "2 31598  97.8837 179.3924 0001581  85.2719 274.8682 14.95818364  2987"}}, "geometry": {"type": "Point", "coordinates": [9.53499033481718, 50.99085048801362]}}, {"type": "Feature", "properties": {"norad_id": 31698, "name": "TERRASAR-X", "group": "resource", "lat": 52.61082158981633, "lon": -10.343861437579788, "alt_km": 502.5126501614586, "timestamp": "2025-12-20T05:41:49.674784+00:00", "meta": {"OBJECT_NAME": "TERRASAR-X", "OBJECT_ID": "2007-026A", "EPOCH": "2025-12-19T12:04:27.729408", "MEAN_MOTION": 15.19152518, "ECCENTRICITY": 0.0001854, "INCLINATION": 97.4454, "RA_OF_ASC_NODE": 358.785, "ARG_OF_PERICENTER": 93.3795, "MEAN_ANOMALY": 266.7652, "EPHEMERIS_TYPE": 0, "CLASSIFICATION_TYPE": "U", "NORAD_CAT_ID": 31698, "ELEMENT_SET_NO": 999, "REV_AT_EPOCH": 2594, "BSTAR": 3.366e-05, "MEAN_MOTION_DOT": 6.4e-06, "MEAN_MOTION_DDOT": 0}, "tle": {"line1": "1 31698U 07026A   25353.50309872  .00000640  00000+0  33660-4 0  9995", "line2": "2 31698  97.4454 358.7850 0001854  93.3795 266.7652 15.19152518 25944"}}, "geometry": {"type": "Point", "coordinates": [-10.343861437579788, 52.61082158981633]}}, {"type": "Feature", "properties": {"norad_id": 32060, "name": "WORLDVIEW-1 (WV-1)", "group": "resource", "lat": -25.477222723605085, "lon": -71.92962579926457, "alt_km": 497.1021342039012, "timestamp": "2025-12-20T05:41:49.674795+00:00", "meta": {"OBJECT_NAME": "WORLDVIEW-1 (WV-1)", "OBJECT_ID": "2007-041A", "EPOCH": "2025-12-19T06:44:54.477312", "MEAN_MOTION": 15.24792319, "ECCENTRICITY": 9.533e-05, "INCLINATION": 97.3841, "RA_OF_ASC_NODE": 110.6704, "ARG_OF_PERICENTER": 118.344, "MEAN_ANOMALY": 241.7894, "EPHEMERIS_TYPE": 0, "CLASSIFICATION_TYPE": "U", "NORAD_CAT_ID": 32060, "ELEMENT_SET_NO": 999, "REV_AT_EPOCH": 1547, "BSTAR": 0.00026921224, "MEAN_MOTION_DOT": 6.606e-05, "MEAN_MOTION_DDOT": 0}, "tle": {"line1": "1 32060U 07041A   25353.28118608  .00006606  00000+0  26921-3 0  9995", "line2": "2 32060  97.3841 110.6704 0000953 118.3440 241.7894 15.24792319 15477"}}, "geometry": {"type": "Point", "coordinates": [-71.92962579926457, -25.477222723605085]}}]}